ADRAS-J                 
1 58992U 24034A   24193.48736929  .00004003  00000+0  37204-3 0  9998
2 58992  98.2141 167.6133 0042533 331.6610  28.2295 14.94309273 21490
